start=new Date('%Y-%m-27T00:00:00.000Z').valueOf();
sats=[{"OBJECT_ID":"2021-041A","GP_ID":"183215529","APOAPSIS":"548.395","PERIOD":"95.592","RA_OF_ASC_NODE":"27.5108","TLE_LINE1":"1 48553U 21041A   21233.81656237 -.00000808  00000-0 -35325-4 0  9992","MEAN_MOTION_DDOT":"0.0000000000000","MEAN_ANOMALY":"235.6965","COUNTRY_CODE":"US","CLASSIFICATION_TYPE":"U","TIME_SYSTEM":"UTC","PERIAPSIS":"546.058","INCLINATION":"53.0697","MEAN_MOTION":"15.06395829","OBJECT_NAME":"STARLINK-2063","NORAD_CAT_ID":"48553","SEMIMAJOR_AXIS":"6925.361","ELEMENT_SET_NO":"999","ECCENTRICITY":"0.00016870","LAUNCH_DATE":"2021-05-15","SITE":"AFETR","DECAY_DATE":null,"TLE_LINE2":"2 48553  53.0697  27.5108 0001687 124.4184 235.6965 15.06395829 14870","ARG_OF_PERICENTER":"124.4184","RCS_SIZE":"LARGE","MEAN_ELEMENT_THEORY":"SGP4","MEAN_MOTION_DOT":"-0.00000808","REV_AT_EPOCH":"1487","CENTER_NAME":"EARTH","FILE":"3101032","BSTAR":"-0.00003532500000","REF_FRAME":"TEME","EPHEMERIS_TYPE":"0","EPOCH":"2021-08-21T19:35:50.988768","OBJECT_TYPE":"PAYLOAD"},{"MEAN_MOTION":"15.06400425","OBJECT_NAME":"STARLINK-2139","INCLINATION":"53.0634","PERIAPSIS":"545.975","CLASSIFICATION_TYPE":"U","TIME_SYSTEM":"UTC","MEAN_MOTION_DDOT":"0.0000000000000","MEAN_ANOMALY":"224.2581","COUNTRY_CODE":"US","RA_OF_ASC_NODE":"27.5107","TLE_LINE1":"1 48554U 21041B   21233.82393016  .00000986  00000-0  85089-4 0  9994","OBJECT_ID":"2021-041B","APOAPSIS":"548.450","PERIOD":"95.592","GP_ID":"183215640","EPHEMERIS_TYPE":"0","OBJECT_TYPE":"PAYLOAD","EPOCH":"2021-08-21T19:46:27.565824","BSTAR":"0.00008508900000","REF_FRAME":"TEME","CENTER_NAME":"EARTH","FILE":"3101032","MEAN_ELEMENT_THEORY":"SGP4","RCS_SIZE":"LARGE","REV_AT_EPOCH":"1487","MEAN_MOTION_DOT":"0.00000986","ARG_OF_PERICENTER":"135.8550","TLE_LINE2":"2 48554  53.0634  27.5107 0001787 135.8550 224.2581 15.06400425 14872","DECAY_DATE":null,"ELEMENT_SET_NO":"999","NORAD_CAT_ID":"48554","SEMIMAJOR_AXIS":"6925.347","SITE":"AFETR","ECCENTRICITY":"0.00017870","LAUNCH_DATE":"2021-05-15"},{"TIME_SYSTEM":"UTC","CLASSIFICATION_TYPE":"U","PERIAPSIS":"546.109","INCLINATION":"53.0566","OBJECT_NAME":"STARLINK-2145","MEAN_MOTION":"15.06393761","GP_ID":"183215812","APOAPSIS":"548.357","PERIOD":"95.593","OBJECT_ID":"2021-041C","TLE_LINE1":"1 48555U 21041C   21233.85249733 -.00000802  00000-0 -34923-4 0  9994","RA_OF_ASC_NODE":"37.3978","COUNTRY_CODE":"US","MEAN_MOTION_DDOT":"0.0000000000000","MEAN_ANOMALY":"239.8602","MEAN_MOTION_DOT":"-0.00000802","REV_AT_EPOCH":"1473","RCS_SIZE":"LARGE","MEAN_ELEMENT_THEORY":"SGP4","FILE":"3101032","CENTER_NAME":"EARTH","REF_FRAME":"TEME","BSTAR":"-0.00003492300000","EPOCH":"2021-08-21T20:27:35.769312","OBJECT_TYPE":"PAYLOAD","EPHEMERIS_TYPE":"0","ECCENTRICITY":"0.00016230","LAUNCH_DATE":"2021-05-15","SITE":"AFETR","SEMIMAJOR_AXIS":"6925.368","NORAD_CAT_ID":"48555","ELEMENT_SET_NO":"999","DECAY_DATE":null,"TLE_LINE2":"2 48555  53.0566  37.3978 0001623 120.2548 239.8602 15.06393761 14731","ARG_OF_PERICENTER":"120.2548"},{"OBJECT_NAME":"STARLINK-2151","MEAN_MOTION":"15.06397777","INCLINATION":"53.0553","PERIAPSIS":"546.344","TIME_SYSTEM":"UTC","CLASSIFICATION_TYPE":"U","COUNTRY_CODE":"US","MEAN_MOTION_DDOT":"0.0000000000000","MEAN_ANOMALY":"239.7638","TLE_LINE1":"1 48556U 21041D   21233.84143647  .00000954  00000-0  82905-4 0  9990","RA_OF_ASC_NODE":"37.4427","PERIOD":"95.592","APOAPSIS":"548.097","GP_ID":"183215726","OBJECT_ID":"2021-041D","OBJECT_TYPE":"PAYLOAD","EPOCH":"2021-08-21T20:11:40.111008","EPHEMERIS_TYPE":"0","REF_FRAME":"TEME","BSTAR":"0.00008290500000","FILE":"3101032","CENTER_NAME":"EARTH","REV_AT_EPOCH":"1473","MEAN_MOTION_DOT":"0.00000954","MEAN_ELEMENT_THEORY":"SGP4","RCS_SIZE":"LARGE","ARG_OF_PERICENTER":"120.3476","TLE_LINE2":"2 48556  53.0553  37.4427 0001266 120.3476 239.7638 15.06397777 14731","DECAY_DATE":null,"SITE":"AFETR","LAUNCH_DATE":"2021-05-15","ECCENTRICITY":"0.00012660","ELEMENT_SET_NO":"999","NORAD_CAT_ID":"48556","SEMIMAJOR_AXIS":"6925.355"},{"CLASSIFICATION_TYPE":"U","TIME_SYSTEM":"UTC","MEAN_MOTION":"15.06397921","OBJECT_NAME":"STARLINK-2155","PERIAPSIS":"545.950","INCLINATION":"53.0577","OBJECT_ID":"2021-041E","GP_ID":"183215885","PERIOD":"95.592","APOAPSIS":"548.490","MEAN_ANOMALY":"244.2551","MEAN_MOTION_DDOT":"0.0000000000000","COUNTRY_CODE":"US","RA_OF_ASC_NODE":"27.4302","TLE_LINE1":"1 48557U 21041E   21233.84604024 -.00000266  00000-0  10479-5 0  9997","CENTER_NAME":"EARTH","FILE":"3101032","RCS_SIZE":"LARGE","MEAN_ELEMENT_THEORY":"SGP4","MEAN_MOTION_DOT":"-0.00000266","REV_AT_EPOCH":"1487","EPHEMERIS_TYPE":"0","EPOCH":"2021-08-21T20:18:17.876736","OBJECT_TYPE":"PAYLOAD","BSTAR":"0.00000104790000","REF_FRAME":"TEME","NORAD_CAT_ID":"48557","SEMIMAJOR_AXIS":"6925.355","ELEMENT_SET_NO":"999","LAUNCH_DATE":"2021-05-15","ECCENTRICITY":"0.00018340","SITE":"AFETR","TLE_LINE2":"2 48557  53.0577  27.4302 0001834 115.8627 244.2551 15.06397921 14878","ARG_OF_PERICENTER":"115.8627","DECAY_DATE":null},{"TLE_LINE1":"1 48558U 21041F   21233.84235593 -.00000846  00000-0 -37875-4 0  9992","RA_OF_ASC_NODE":"27.4451","COUNTRY_CODE":"US","MEAN_MOTION_DDOT":"0.0000000000000","MEAN_ANOMALY":"232.1311","GP_ID":"183215287","APOAPSIS":"548.396","PERIOD":"95.592","OBJECT_ID":"2021-041F","PERIAPSIS":"546.029","INCLINATION":"53.0575","OBJECT_NAME":"STARLINK-2166","MEAN_MOTION":"15.06400249","TIME_SYSTEM":"UTC","CLASSIFICATION_TYPE":"U","DECAY_DATE":null,"TLE_LINE2":"2 48558  53.0575  27.4451 0001709 127.9833 232.1311 15.06400249 14010","ARG_OF_PERICENTER":"127.9833","ECCENTRICITY":"0.00017090","LAUNCH_DATE":"2021-05-15","SITE":"AFETR","SEMIMAJOR_AXIS":"6925.348","NORAD_CAT_ID":"48558","ELEMENT_SET_NO":"999","REF_FRAME":"TEME","BSTAR":"-0.00003787500000","EPOCH":"2021-08-21T20:12:59.552352","OBJECT_TYPE":"PAYLOAD","EPHEMERIS_TYPE":"0","MEAN_MOTION_DOT":"-0.00000846","REV_AT_EPOCH":"1401","RCS_SIZE":"LARGE","MEAN_ELEMENT_THEORY":"SGP4","FILE":"3101032","CENTER_NAME":"EARTH"},{"TIME_SYSTEM":"UTC","CLASSIFICATION_TYPE":"U","OBJECT_NAME":"STARLINK-2167","MEAN_MOTION":"15.06391798","INCLINATION":"53.0401","PERIAPSIS":"545.879","APOAPSIS":"548.599","PERIOD":"95.593","GP_ID":"183215458","OBJECT_ID":"2021-041G","COUNTRY_CODE":"US","MEAN_MOTION_DDOT":"0.0000000000000","MEAN_ANOMALY":"236.0518","TLE_LINE1":"1 48559U 21041G   21233.54653516 -.00000246  00000-0  24271-5 0  9999","RA_OF_ASC_NODE":"28.8430","FILE":"3101032","CENTER_NAME":"EARTH","REV_AT_EPOCH":"1482","MEAN_MOTION_DOT":"-0.00000246","MEAN_ELEMENT_THEORY":"SGP4","RCS_SIZE":"LARGE","OBJECT_TYPE":"PAYLOAD","EPOCH":"2021-08-21T13:07:00.637824","EPHEMERIS_TYPE":"0","REF_FRAME":"TEME","BSTAR":"0.00000242710000","SITE":"AFETR","LAUNCH_DATE":"2021-05-15","ECCENTRICITY":"0.00019640","ELEMENT_SET_NO":"999","SEMIMAJOR_AXIS":"6925.374","NORAD_CAT_ID":"48559","ARG_OF_PERICENTER":"124.0657","TLE_LINE2":"2 48559  53.0401  28.8430 0001964 124.0657 236.0518 15.06391798 14825","DECAY_DATE":null},{"MEAN_ANOMALY":"234.8490","MEAN_MOTION_DDOT":"0.0000000000000","COUNTRY_CODE":"US","RA_OF_ASC_NODE":"28.8381","TLE_LINE1":"1 48560U 21041H   21233.54749568  .00000773  00000-0  70845-4 0  9995","OBJECT_ID":"2021-041H","GP_ID":"183187497","PERIOD":"95.593","APOAPSIS":"548.617","MEAN_MOTION":"15.06387761","OBJECT_NAME":"STARLINK-2173","PERIAPSIS":"545.885","INCLINATION":"53.0395","CLASSIFICATION_TYPE":"U","TIME_SYSTEM":"UTC","TLE_LINE2":"2 48560  53.0395  28.8381 0001972 125.2683 234.8490 15.06387761 15736","ARG_OF_PERICENTER":"125.2683","DECAY_DATE":null,"SEMIMAJOR_AXIS":"6925.386","NORAD_CAT_ID":"48560","ELEMENT_SET_NO":"999","LAUNCH_DATE":"2021-05-15","ECCENTRICITY":"0.00019720","SITE":"AFETR","EPHEMERIS_TYPE":"0","EPOCH":"2021-08-21T13:08:23.626752","OBJECT_TYPE":"PAYLOAD","BSTAR":"0.00007084500000","REF_FRAME":"TEME","CENTER_NAME":"EARTH","FILE":"3100831","RCS_SIZE":"LARGE","MEAN_ELEMENT_THEORY":"SGP4","MEAN_MOTION_DOT":"0.00000773","REV_AT_EPOCH":"1573"},{"GP_ID":"183215530","PERIOD":"93.375","APOAPSIS":"441.021","OBJECT_ID":"2021-041J","TLE_LINE1":"1 48561U 21041J   21233.91668981 -.00014409  00000-0 -32221-3 0  9994","RA_OF_ASC_NODE":"13.9934","COUNTRY_CODE":"US","MEAN_ANOMALY":"204.4984","MEAN_MOTION_DDOT":"0.0000000000000","TIME_SYSTEM":"UTC","CLASSIFICATION_TYPE":"U","PERIAPSIS":"438.449","INCLINATION":"53.0551","OBJECT_NAME":"STARLINK-2186","MEAN_MOTION":"15.42160863","ECCENTRICITY":"0.00018860","LAUNCH_DATE":"2021-05-15","SITE":"AFETR","SEMIMAJOR_AXIS":"6817.870","NORAD_CAT_ID":"48561","ELEMENT_SET_NO":"999","DECAY_DATE":null,"TLE_LINE2":"2 48561  53.0551  13.9934 0001886  33.7913 204.4984 15.42160863  3643","ARG_OF_PERICENTER":"33.7913","MEAN_MOTION_DOT":"-0.00014409","REV_AT_EPOCH":"364","RCS_SIZE":"LARGE","MEAN_ELEMENT_THEORY":"SGP4","FILE":"3101032","CENTER_NAME":"EARTH","REF_FRAME":"TEME","BSTAR":"-0.00032221000000","EPOCH":"2021-08-21T22:00:01.999584","OBJECT_TYPE":"PAYLOAD","EPHEMERIS_TYPE":"0"},{"ARG_OF_PERICENTER":"126.2031","TLE_LINE2":"2 48562  53.0649  27.2121 0001764 126.2031 233.9122 15.06398513 14886","DECAY_DATE":null,"SITE":"AFETR","LAUNCH_DATE":"2021-05-15","ECCENTRICITY":"0.00017640","ELEMENT_SET_NO":"999","SEMIMAJOR_AXIS":"6925.353","NORAD_CAT_ID":"48562","OBJECT_TYPE":"PAYLOAD","EPOCH":"2021-08-21T21:16:41.896992","EPHEMERIS_TYPE":"0","REF_FRAME":"TEME","BSTAR":"-0.00005845800000","FILE":"3101032","CENTER_NAME":"EARTH","REV_AT_EPOCH":"1488","MEAN_MOTION_DOT":"-0.00001152","MEAN_ELEMENT_THEORY":"SGP4","RCS_SIZE":"LARGE","COUNTRY_CODE":"US","MEAN_ANOMALY":"233.9122","MEAN_MOTION_DDOT":"0.0000000000000","TLE_LINE1":"1 48562U 21041K   21233.88659603 -.00001152  00000-0 -58458-4 0  9994","RA_OF_ASC_NODE":"27.2121","APOAPSIS":"548.440","PERIOD":"95.592","GP_ID":"183215641","OBJECT_ID":"2021-041K","OBJECT_NAME":"STARLINK-2187","MEAN_MOTION":"15.06398513","INCLINATION":"53.0649","PERIAPSIS":"545.996","TIME_SYSTEM":"UTC","CLASSIFICATION_TYPE":"U"}];
